{
    "links": {
        "self": "http://www.neowsapp.com/rest/v1/neo/3781831?api_key=iIulBulltgU6a56xZRHN4H3l9WmuAYTsLGpBGhQ2"
    },
    "id": "3781831",
    "neo_reference_id": "3781831",
    "name": "(2017 RW17)",
    "designation": "2017 RW17",
    "nasa_jpl_url": "http://ssd.jpl.nasa.gov/sbdb.cgi?sstr=3781831",
    "absolute_magnitude_h": 29.5,
    "estimated_diameter": {
        "kilometers": {
            "estimated_diameter_min": 0.0033462237,
            "estimated_diameter_max": 0.0074823838
        },
        "meters": {
            "estimated_diameter_min": 3.3462237445,
            "estimated_diameter_max": 7.4823837607
        },
        "miles": {
            "estimated_diameter_min": 0.0020792464,
            "estimated_diameter_max": 0.0046493363
        },
        "feet": {
            "estimated_diameter_min": 10.9784247101,
            "estimated_diameter_max": 24.5485039376
        }
    },
    "is_potentially_hazardous_asteroid": false,
    "close_approach_data": [
        {
            "close_approach_date": "2017-09-16",
            "close_approach_date_full": "2017-Sep-16 15:53",
            "epoch_date_close_approach": 1505577180000,
            "relative_velocity": {
                "kilometers_per_second": "13.7675220394",
                "kilometers_per_hour": "49563.0793419444",
                "miles_per_hour": "30796.5700499987"
            },
            "miss_distance": {
                "astronomical": "0.0027705534",
                "lunar": "1.0777452726",
                "kilometers": "414468.887361258",
                "miles": "257539.0243630404"
            },
            "orbiting_body": "Earth"
        },
        {
            "close_approach_date": "2017-09-16",
            "close_approach_date_full": "2017-Sep-16 22:22",
            "epoch_date_close_approach": 1505600520000,
            "relative_velocity": {
                "kilometers_per_second": "13.3318443059",
                "kilometers_per_hour": "47994.639501213",
                "miles_per_hour": "29822.0025278509"
            },
            "miss_distance": {
                "astronomical": "0.0017492588",
                "lunar": "0.6804616732",
                "kilometers": "261685.390558756",
                "miles": "162603.7616565928"
            },
            "orbiting_body": "Moon"
        }
    ],
    "orbital_data": {
        "orbit_id": "1",
        "orbit_determination_date": "2017-09-27 06:51:21",
        "first_observation_date": "2017-09-14",
        "last_observation_date": "2017-09-15",
        "data_arc_in_days": 1,
        "observations_used": 6,
        "orbit_uncertainty": "9",
        "minimum_orbit_intersection": ".000206545",
        "jupiter_tisserand_invariant": "3.590",
        "epoch_osculation": "2458010.5",
        "eccentricity": ".5931568565758556",
        "semi_major_axis": "2.00966882558809",
        "inclination": ".9819544003450279",
        "ascending_node_longitude": "173.32739507",
        "orbital_period": "1040.60323194724",
        "perihelion_distance": ".8176199822437672",
        "perihelion_argument": "240.7615841518788",
        "aphelion_distance": "3.201717668932412",
        "perihelion_time": "2458054.554884883012",
        "mean_anomaly": "344.7590723620889",
        "mean_motion": ".3459531826807284",
        "equinox": "J2000",
        "orbit_class": {
            "orbit_class_type": "APO",
            "orbit_class_description": "Near-Earth asteroid orbits which cross the Earth’s orbit similar to that of 1862 Apollo",
            "orbit_class_range": "a (semi-major axis) > 1.0 AU; q (perihelion) < 1.017 AU"
        }
    },
    "is_sentry_object": false
}